{
  "norad_id": 45426,
  "name": "ONEWEB-0080",
  "history": [
    {
      "epoch": "2026-03-28T22:04:35.414976",
      "apogee_km": 1219.3711692035795,
      "perigee_km": 1216.0069778356192,
      "latitude_deg": -42.92474648898508,
      "longitude_deg": -109.09398336010054,
      "semi_major_axis_km": 7595.826073519599,
      "eccentricity": 0.00022145,
      "inclination_deg": 87.8905,
      "raan_deg": 37.0153,
      "arg_perigee_deg": 78.3258,
      "mean_anomaly_deg": 281.8118,
      "mean_motion_rev_day": 13.11415294
    },
    {
      "epoch": "2026-03-29T03:34:11.533440",
      "apogee_km": 1219.3670623239232,
      "perigee_km": 1216.0081886745274,
      "latitude_deg": 0.7417858703834034,
      "longitude_deg": -87.12051839986816,
      "semi_major_axis_km": 7595.824625499225,
      "eccentricity": 0.0002211,
      "inclination_deg": 87.8906,
      "raan_deg": 36.9698,
      "arg_perigee_deg": 78.2335,
      "mean_anomaly_deg": 281.9041,
      "mean_motion_rev_day": 13.11415669
    }
  ]
}